FENGYUN 1C DEB          
1 31317U 99025BPV 17345.89232897  .00001976  00000-0  60072-3 0  9999
2 31317  99.3659 223.6194 0090883 233.8314 125.4440 14.41069074551161
